H1 CPF 01  gfz 2022 10 03 00  7761 terrasarx 
H2 0702601  6201 31698    2022 10 03 00 59 42 2022 10 08 00 00 42   120 1 1  0 0 0
H9
10 0 59855   3582.000000  0    1160871.278    972551.854  -6726840.421
10 0 59855   3702.000000  0     947670.183     85378.521  -6829262.958
10 0 59855   3822.000000  0     702558.796   -799261.579  -6812600.577
10 0 59855   3942.000000  0     429963.437  -1665532.598  -6677139.907
10 0 59855   4062.000000  0     135058.430  -2497991.925  -6425208.873
10 0 59855   4182.000000  0    -176328.727  -3281859.301  -6061143.330
10 0 59855   4302.000000  0    -497828.698  -4003277.108  -5591220.026
10 0 59855   4422.000000  0    -822654.933  -4649554.751  -5023558.643
10 0 59855   4542.000000  0   -1143741.181  -5209396.068  -4367993.450
10 0 59855   4662.000000  0   -1453889.717  -5673104.543  -3635913.653
10 0 59855   4782.000000  0   -1745926.829  -6032761.320  -2840074.080
10 0 59855   4902.000000  0   -2012862.330  -6282372.043  -1994379.072
10 0 59855   5022.000000  0   -2248049.666  -6417979.252  -1113641.853
10 0 59855   5142.000000  0   -2445342.433  -6437736.101   -213322.831
10 0 59855   5262.000000  0   -2599243.465  -6341937.827    690747.713
10 0 59855   5382.000000  0   -2705042.213  -6133009.785   1582655.898
10 0 59855   5502.000000  0   -2758936.760  -5815452.410   2446693.531
10 0 59855   5622.000000  0   -2758137.140  -5395743.943   3267643.585
10 0 59855   5742.000000  0   -2700946.981  -4882203.981   4031055.188
10 0 59855   5862.000000  0   -2586821.992  -4284821.932   4723502.272
10 0 59855   5982.000000  0   -2416404.832  -3615055.056   5332821.481
10 0 59855   6102.000000  0   -2191534.501  -2885599.763   5848325.090
10 0 59855   6222.000000  0   -1915229.926  -2110143.577   6260983.901
10 0 59855   6342.000000  0   -1591649.167  -1303103.993   6563580.363
10 0 59855   6462.000000  0   -1226025.201   -479356.288   6750829.389
10 0 59855   6582.000000  0    -824580.537    346042.500   6819463.119
10 0 59855   6702.000000  0    -394421.674   1158127.341   6768284.552
10 0 59855   6822.000000  0      56586.727   1942296.205   6598187.758
10 0 59855   6942.000000  0     519965.488   2684572.503   6312143.093
10 0 59855   7062.000000  0     986779.486   3371854.043   5915148.233
10 0 59855   7182.000000  0    1447808.577   3992146.428   5414146.397
10 0 59855   7302.000000  0    1893728.520   4534776.756   4817911.002
10 0 59855   7422.000000  0    2315299.504   4990583.941   4136897.742
10 0 59855   7542.000000  0    2703557.366   5352079.540   3383065.039
10 0 59855   7662.000000  0    3050004.174   5613579.010   2569668.308
10 0 59855   7782.000000  0    3346794.802   5771300.823   1711024.493
10 0 59855   7902.000000  0    3586911.707   5823423.450    822254.112
10 0 59855   8022.000000  0    3764324.771   5770104.416    -80991.390
10 0 59855   8142.000000  0    3874133.609   5613458.703   -982813.906
10 0 59855   8262.000000  0    3912686.787   5357497.505  -1867356.525
10 0 59855   8382.000000  0    3877676.251   5008029.794  -2719090.075
10 0 59855   8502.000000  0    3768203.458   4572528.192  -3523091.862
10 0 59855   8622.000000  0    3584815.904   4059963.208  -4265309.658
10 0 59855   8742.000000  0    3329514.840   3480612.136  -4932805.389
10 0 59855   8862.000000  0    3005734.169   2845846.756  -5513976.530
10 0 59855   8982.000000  0    2618290.770   2167904.310  -5998749.522
10 0 59855   9102.000000  0    2173308.669   1459648.432  -6378744.105
10 0 59855   9222.000000  0    1678118.711    734324.328  -6647405.955
10 0 59855   9342.000000  0    1141137.409      5314.075  -6800108.537
10 0 59855   9462.000000  0     571724.352   -714105.812  -6834225.849
10 0 59855   9582.000000  0     -19979.219  -1411001.207  -6749171.203
10 0 59855   9702.000000  0    -623226.066  -2073006.007  -6546405.287
10 0 59855   9822.000000  0   -1226853.131  -2688536.315  -6229415.330
10 0 59855   9942.000000  0   -1819483.409  -3246990.890  -5803661.347
10 0 59855  10062.000000  0   -2389735.374  -3738932.726  -5276491.584
10 0 59855  10182.000000  0   -2926438.991  -4156251.570  -4657028.279
10 0 59855  10302.000000  0   -3418854.841  -4492303.642  -3956020.787
10 0 59855  10422.000000  0   -3856890.105  -4742024.040  -3185668.317
10 0 59855  10542.000000  0   -4231308.102  -4902010.476  -2359415.002
10 0 59855  10662.000000  0   -4533926.503  -4970575.250  -1491718.832
10 0 59855  10782.000000  0   -4757798.785  -4947763.810   -597798.451
10 0 59855  10902.000000  0   -4897373.995  -4835338.869    306637.540
10 0 59855  11022.000000  0   -4948630.566  -4636729.931   1205673.757
10 0 59855  11142.000000  0   -4909179.706  -4356947.943   2083477.685
10 0 59855  11262.000000  0   -4778335.215  -4002467.399   2924587.730
10 0 59855  11382.000000  0   -4557148.756  -3581079.637   3714193.270
10 0 59855  11502.000000  0   -4248409.863  -3101721.394   4438401.550
10 0 59855  11622.000000  0   -3856609.675  -2574281.918   5084485.331
10 0 59855  11742.000000  0   -3387871.279  -2009395.495   5641104.966
10 0 59855  11862.000000  0   -2849849.449  -1418224.882   6098504.500
10 0 59855  11982.000000  0   -2251600.289   -812238.185   6448679.378
10 0 59855  12102.000000  0   -1603423.071   -202983.365   6685510.994
10 0 59855  12222.000000  0    -916678.628    398131.902   6804865.719
10 0 59855  12342.000000  0    -203589.787    980052.027   6804662.103
10 0 59855  12462.000000  0     522975.798   1532276.236   6684905.198
10 0 59855  12582.000000  0    1249737.288   2045048.097   6447686.612
10 0 59855  12702.000000  0    1963242.677   2509527.847   6097149.445
10 0 59855  12822.000000  0    2650116.973   2917945.267   5639420.895
10 0 59855  12942.000000  0    3297314.454   3263732.386   5082512.135
10 0 59855  13062.000000  0    3892369.937   3541632.630   4436183.048
10 0 59855  13182.000000  0    4423641.178   3747783.079   3711776.311
10 0 59855  13302.000000  0    4880544.565   3879771.422   2922023.798
10 0 59855  13422.000000  0    5253772.411   3936662.274   2080820.318
10 0 59855  13542.000000  0    5535487.658   3918992.723   1202976.990
10 0 59855  13662.000000  0    5719492.032   3828738.210    303954.339
10 0 59855  13782.000000  0    5801362.246   3669248.154   -600418.535
10 0 59855  13902.000000  0    5778550.195   3445153.306  -1494231.481
10 0 59855  14022.000000  0    5650445.463   3162247.218  -2361781.481
10 0 59855  14142.000000  0    5418398.200   2827345.533  -3187854.667
10 0 59855  14262.000000  0    5085703.750   2448127.048  -3957996.584
10 0 59855  14382.000000  0    4657549.297   2032960.146  -4658766.814
10 0 59855  14502.000000  0    4140921.785   1590718.255  -5277970.168
10 0 59855  14622.000000  0    3544484.345   1130591.294  -5804860.915
10 0 59855  14742.000000  0    2878422.869    661896.692  -6230320.004
10 0 59855  14862.000000  0    2154265.495    193893.227  -6547001.619
10 0 59855  14982.000000  0    1384680.916   -264397.784  -6749448.185
10 0 59855  15102.000000  0     583258.298   -704362.324  -6834176.093
10 0 59855  15222.000000  0    -235730.511  -1117951.600  -6799728.533
10 0 59855  15342.000000  0   -1057578.811  -1497824.783  -6646696.598
10 0 59855  15462.000000  0   -1867402.685  -1837476.063  -6377711.226
10 0 59855  15582.000000  0   -2650404.877  -2131344.489  -5997402.506
10 0 59855  15702.000000  0   -3392139.333  -2374904.092  -5512328.151
10 0 59855  15822.000000  0   -4078775.876  -2564734.878  -4930872.772
10 0 59855  15942.000000  0   -4697360.677  -2698572.252  -4263114.280
10 0 59855  16062.000000  0   -5236065.210  -2775333.289  -3520659.503
10 0 59855  16182.000000  0   -5684420.229  -2795119.486  -2716450.975
10 0 59855  16302.000000  0   -6033528.877  -2759195.029  -1864546.170
10 0 59855  16422.000000  0   -6276252.832  -2669941.077   -979873.171
10 0 59855  16542.000000  0   -6407367.139  -2530786.394    -77966.562
10 0 59855  16662.000000  0   -6423678.564  -2346115.667    825310.852
10 0 59855  16782.000000  0   -6324104.744  -2121157.638   1714055.436
10 0 59855  16902.000000  0   -6109709.407  -1861855.746   2572612.810
10 0 59855  17022.000000  0   -5783693.668  -1574724.599   3385861.563
10 0 59855  17142.000000  0   -5351345.772  -1266696.190   4139487.247
10 0 59855  17262.000000  0   -4819946.261   -944959.230   4820239.310
10 0 59855  17382.000000  0   -4198635.925   -616796.907   5416163.171
10 0 59855  17502.000000  0   -3498250.763   -289426.767   5916808.480
10 0 59855  17622.000000  0   -2731124.227     30154.998   6313409.137
10 0 59855  17742.000000  0   -1910862.301    335320.040   6599030.871
10 0 59855  17862.000000  0   -1052097.102    619941.717   6768686.068
10 0 59855  17982.000000  0    -170223.727    878516.082   6819415.137
10 0 59855  18102.000000  0     718875.537   1106266.925   6750334.304
10 0 59855  18222.000000  0    1599116.086   1299233.757   6562650.139
10 0 59855  18342.000000  0    2454501.022   1454341.051   6259639.622
10 0 59855  18462.000000  0    3269411.433   1569447.254   5846597.046
10 0 59855  18582.000000  0    4028894.119   1643373.287   5330746.982
10 0 59855  18702.000000  0    4718938.874   1675909.974   4721123.418
10 0 59855  18822.000000  0    5326743.108   1667805.256   4028419.361
10 0 59855  18942.000000  0    5840960.281   1620730.041   3264802.807
10 0 59855  19062.000000  0    6251919.784   1537223.539   2443702.541
10 0 59855  19182.000000  0    6551818.476   1420618.582   1579571.820
10 0 59855  19302.000000  0    6734877.253   1274949.740    687628.519
10 0 59855  19422.000000  0    6797457.393   1104845.952   -216419.649
10 0 59855  19542.000000  0    6738135.468    915410.269  -1116660.919
10 0 59855  19662.000000  0    6557731.293    712089.218  -1997268.667
10 0 59855  19782.000000  0    6259291.883    500535.376  -2842786.442
10 0 59855  19902.000000  0    5848031.270    286467.882  -3638404.651
10 0 59855  20022.000000  0    5331228.069     75533.805  -4370222.579
99
